{
  "last_updated": "2025-12-16T06:00:02.524564",
  "satellites": {
    "98592": {
      "name": "DUTHSat-2",
      "norad_id": "98592",
      "tle": "1 64530U 25135C   25349.85886170  .00012513  00000-0  55615-3 0  9997\n2 64530  97.4496 101.7573 0006089 107.5777 252.6124 15.21641642 27003",
      "epoch": "2025-12-15T20:36:45.650880",
      "fetched_at": "2025-12-16T06:00:02.642494",
      "source": "satnogs"
    },
    "98530": {
      "name": "LAMARR",
      "norad_id": "98530",
      "tle": "1 98530U          25349.44897407 +.00010869 +00000+0 +55370-3 0 00280\n2 98530  97.4374  61.1420 0005958 300.4643  59.6001 15.16943841002535",
      "epoch": "2025-12-15T10:46:31.359648",
      "fetched_at": "2025-12-16T06:00:02.689578",
      "source": "satnogs"
    },
    "98529": {
      "name": "DIRAC",
      "norad_id": "98529",
      "tle": "1 98529U          25349.71004885 +.00010797 +00000+0 +54559-3 0 00242\n2 98529  97.4349  61.3991 0005145 306.1021  53.9736 15.17233595002576",
      "epoch": "2025-12-15T17:02:28.220640",
      "fetched_at": "2025-12-16T06:00:02.735459",
      "source": "satnogs"
    },
    "98518": {
      "name": "MICE-1",
      "norad_id": "98518",
      "tle": "1 98518U 25276Z   25345.50761227  .00000000  00000-0  85911-3 0 00002\n2 98518  97.4491  57.2978 0004401 288.2412 177.0173 15.17054724 01824",
      "epoch": "2025-12-11T12:10:57.700128",
      "fetched_at": "2025-12-16T06:00:02.782543",
      "source": "satnogs"
    }
  },
  "fetch_log": [
    {
      "norad_id": "98592",
      "name": "DUTHSat-2",
      "status": "success",
      "source": "satnogs",
      "timestamp": "2025-12-16T06:00:02.642506"
    },
    {
      "norad_id": "98530",
      "name": "LAMARR",
      "status": "success",
      "source": "satnogs",
      "timestamp": "2025-12-16T06:00:02.689582"
    },
    {
      "norad_id": "98529",
      "name": "DIRAC",
      "status": "success",
      "source": "satnogs",
      "timestamp": "2025-12-16T06:00:02.735462"
    },
    {
      "norad_id": "98518",
      "name": "MICE-1",
      "status": "success",
      "source": "satnogs",
      "timestamp": "2025-12-16T06:00:02.782546"
    }
  ]
}